{
    "links": {
        "self": "http://www.neowsapp.com/rest/v1/neo/3986813?api_key=iIulBulltgU6a56xZRHN4H3l9WmuAYTsLGpBGhQ2"
    },
    "id": "3986813",
    "neo_reference_id": "3986813",
    "name": "(2020 BO2)",
    "designation": "2020 BO2",
    "nasa_jpl_url": "http://ssd.jpl.nasa.gov/sbdb.cgi?sstr=3986813",
    "absolute_magnitude_h": 26.4,
    "estimated_diameter": {
        "kilometers": {
            "estimated_diameter_min": 0.0139493823,
            "estimated_diameter_max": 0.0311917671
        },
        "meters": {
            "estimated_diameter_min": 13.9493822934,
            "estimated_diameter_max": 31.1917670523
        },
        "miles": {
            "estimated_diameter_min": 0.0086677416,
            "estimated_diameter_max": 0.0193816595
        },
        "feet": {
            "estimated_diameter_min": 45.7656914036,
            "estimated_diameter_max": 102.3351970157
        }
    },
    "is_potentially_hazardous_asteroid": false,
    "close_approach_data": [
        {
            "close_approach_date": "2020-01-28",
            "close_approach_date_full": "2020-Jan-28 03:31",
            "epoch_date_close_approach": 1580182260000,
            "relative_velocity": {
                "kilometers_per_second": "10.704682983",
                "kilometers_per_hour": "38536.8587388461",
                "miles_per_hour": "23945.3053647013"
            },
            "miss_distance": {
                "astronomical": "0.0268461195",
                "lunar": "10.4431404855",
                "kilometers": "4016122.294965465",
                "miles": "2495502.676094817"
            },
            "orbiting_body": "Earth"
        },
        {
            "close_approach_date": "2020-06-14",
            "close_approach_date_full": "2020-Jun-14 05:49",
            "epoch_date_close_approach": 1592113740000,
            "relative_velocity": {
                "kilometers_per_second": "5.6388332743",
                "kilometers_per_hour": "20299.7997876383",
                "miles_per_hour": "12613.50615138"
            },
            "miss_distance": {
                "astronomical": "0.4805055511",
                "lunar": "186.9166593779",
                "kilometers": "71882606.967736157",
                "miles": "44665780.7899746866"
            },
            "orbiting_body": "Earth"
        },
        {
            "close_approach_date": "2021-12-31",
            "close_approach_date_full": "2021-Dec-31 20:45",
            "epoch_date_close_approach": 1640983500000,
            "relative_velocity": {
                "kilometers_per_second": "23.8193404398",
                "kilometers_per_hour": "85749.6255834344",
                "miles_per_hour": "53281.4826298846"
            },
            "miss_distance": {
                "astronomical": "0.4591408628",
                "lunar": "178.6057956292",
                "kilometers": "68686495.104842236",
                "miles": "42679808.9691094168"
            },
            "orbiting_body": "Earth"
        }
    ],
    "orbital_data": {
        "orbit_id": "5",
        "orbit_determination_date": "2020-01-26 05:55:49",
        "first_observation_date": "2020-01-21",
        "last_observation_date": "2020-01-26",
        "data_arc_in_days": 5,
        "observations_used": 33,
        "orbit_uncertainty": "8",
        "minimum_orbit_intersection": ".0257826",
        "jupiter_tisserand_invariant": "4.332",
        "epoch_osculation": "2458870.5",
        "eccentricity": ".4283071857865676",
        "semi_major_axis": "1.551273090917155",
        "inclination": "7.766595424457345",
        "ascending_node_longitude": "118.2569696648482",
        "orbital_period": "705.7173838739755",
        "perihelion_distance": ".8868516789599982",
        "perihelion_argument": "60.60160422049202",
        "aphelion_distance": "2.215694502874312",
        "perihelion_time": "2458915.845920451946",
        "mean_anomaly": "336.8681745189718",
        "mean_motion": ".5101192180130389",
        "equinox": "J2000",
        "orbit_class": {
            "orbit_class_type": "APO",
            "orbit_class_description": "Near-Earth asteroid orbits which cross the Earth’s orbit similar to that of 1862 Apollo",
            "orbit_class_range": "a (semi-major axis) > 1.0 AU; q (perihelion) < 1.017 AU"
        }
    },
    "is_sentry_object": false
}